STARLINK-2156           
1 47742U 21017W   26068.62268476 -.00005979  00000+0 -19007-3 0  9999
2 47742  53.1599 194.4886 0000690  50.5966 309.5096 15.30175173278028
NUSHSAT1                
1 63211U 25052B   26068.64700493  .00023034  00000+0  74857-3 0  9997
2 63211  97.4095 325.7239 0005501  84.7512 275.4357 15.31903202 54882
